{"fetched_at":"2026-07-21T07:06:56.588Z","source":"https://celestrak.org/NORAD/elements/gp.php?NAME=ICEYE&FORMAT=JSON","constellation":"iceye","records":[{"OBJECT_NAME":"ICEYE-X53","OBJECT_ID":"2025-135BJ","EPOCH":"2026-07-20T21:24:23.480352","CLASSIFICATION_TYPE":"U","MEAN_MOTION":15.00910976,"ECCENTRICITY":0.00021685,"INCLINATION":97.7355,"RA_OF_ASC_NODE":318.5237,"ARG_OF_PERICENTER":163.841,"MEAN_ANOMALY":196.2884,"EPHEMERIS_TYPE":0,"NORAD_CAT_ID":64584,"ELEMENT_SET_NO":999,"REV_AT_EPOCH":5913,"BSTAR":0.00013852661,"MEAN_MOTION_DOT":0.00001704,"MEAN_MOTION_DDOT":0},{"OBJECT_NAME":"ICEYE-X65","OBJECT_ID":"2025-248H","EPOCH":"2026-07-20T14:32:07.778112","CLASSIFICATION_TYPE":"U","MEAN_MOTION":15.07949156,"ECCENTRICITY":0.0005988,"INCLINATION":45.4068,"RA_OF_ASC_NODE":318.4471,"ARG_OF_PERICENTER":226.3769,"MEAN_ANOMALY":133.6617,"EPHEMERIS_TYPE":0,"NORAD_CAT_ID":66300,"ELEMENT_SET_NO":999,"REV_AT_EPOCH":4056,"BSTAR":0.00012562,"MEAN_MOTION_DOT":0.00001712,"MEAN_MOTION_DDOT":0},{"OBJECT_NAME":"ICEYE-X66","OBJECT_ID":"2025-248J","EPOCH":"2026-07-20T08:01:04.510272","CLASSIFICATION_TYPE":"U","MEAN_MOTION":15.09198898,"ECCENTRICITY":0.00056736,"INCLINATION":45.4023,"RA_OF_ASC_NODE":318.9024,"ARG_OF_PERICENTER":221.2592,"MEAN_ANOMALY":138.7862,"EPHEMERIS_TYPE":0,"NORAD_CAT_ID":66301,"ELEMENT_SET_NO":999,"REV_AT_EPOCH":4051,"BSTAR":0.00014310579,"MEAN_MOTION_DOT":0.0000206,"MEAN_MOTION_DDOT":0},{"OBJECT_NAME":"ICEYE-X67","OBJECT_ID":"2025-248K","EPOCH":"2026-07-20T08:36:42.681312","CLASSIFICATION_TYPE":"U","MEAN_MOTION":15.09179672,"ECCENTRICITY":0.00070784,"INCLINATION":45.4071,"RA_OF_ASC_NODE":318.3531,"ARG_OF_PERICENTER":221.9188,"MEAN_ANOMALY":138.1153,"EPHEMERIS_TYPE":0,"NORAD_CAT_ID":66302,"ELEMENT_SET_NO":999,"REV_AT_EPOCH":4053,"BSTAR":0.00012540154,"MEAN_MOTION_DOT":0.00001772,"MEAN_MOTION_DDOT":0},{"OBJECT_NAME":"ICEYE-X58","OBJECT_ID":"2025-276CP","EPOCH":"2026-07-20T18:04:36.372864","CLASSIFICATION_TYPE":"U","MEAN_MOTION":15.17324571,"ECCENTRICITY":0.00027217,"INCLINATION":97.4192,"RA_OF_ASC_NODE":274.5174,"ARG_OF_PERICENTER":190.4023,"MEAN_ANOMALY":169.7154,"EPHEMERIS_TYPE":0,"NORAD_CAT_ID":66751,"ELEMENT_SET_NO":999,"REV_AT_EPOCH":3550,"BSTAR":0.000079729152,"MEAN_MOTION_DOT":0.00001524,"MEAN_MOTION_DDOT":0},{"OBJECT_NAME":"ICEYE-X59","OBJECT_ID":"2025-276CQ","EPOCH":"2026-07-20T17:54:53.123616","CLASSIFICATION_TYPE":"U","MEAN_MOTION":15.00783297,"ECCENTRICITY":0.00013113,"INCLINATION":97.4402,"RA_OF_ASC_NODE":271.6103,"ARG_OF_PERICENTER":130.13,"MEAN_ANOMALY":230.0039,"EPHEMERIS_TYPE":0,"NORAD_CAT_ID":66752,"ELEMENT_SET_NO":999,"REV_AT_EPOCH":3530,"BSTAR":0.00022045365,"MEAN_MOTION_DOT":0.00002742,"MEAN_MOTION_DDOT":0},{"OBJECT_NAME":"ICEYE-X60","OBJECT_ID":"2025-276CR","EPOCH":"2026-07-19T18:28:39.726336","CLASSIFICATION_TYPE":"U","MEAN_MOTION":15.10668296,"ECCENTRICITY":0.00009859,"INCLINATION":97.4203,"RA_OF_ASC_NODE":272.4701,"ARG_OF_PERICENTER":344.1732,"MEAN_ANOMALY":15.9467,"EPHEMERIS_TYPE":0,"NORAD_CAT_ID":66753,"ELEMENT_SET_NO":999,"REV_AT_EPOCH":3528,"BSTAR":0.00011913217,"MEAN_MOTION_DOT":0.00001909,"MEAN_MOTION_DDOT":0},{"OBJECT_NAME":"ICEYE-X61","OBJECT_ID":"2025-276CS","EPOCH":"2026-07-20T18:23:55.616352","CLASSIFICATION_TYPE":"U","MEAN_MOTION":15.18627771,"ECCENTRICITY":0.00026241,"INCLINATION":97.4188,"RA_OF_ASC_NODE":274.6307,"ARG_OF_PERICENTER":191.5964,"MEAN_ANOMALY":168.521,"EPHEMERIS_TYPE":0,"NORAD_CAT_ID":66754,"ELEMENT_SET_NO":999,"REV_AT_EPOCH":3551,"BSTAR":0.000083843102,"MEAN_MOTION_DOT":0.00001668,"MEAN_MOTION_DDOT":0},{"OBJECT_NAME":"ICEYE-X62","OBJECT_ID":"2025-276CT","EPOCH":"2026-07-20T17:23:51.641664","CLASSIFICATION_TYPE":"U","MEAN_MOTION":15.10178558,"ECCENTRICITY":0.00012065,"INCLINATION":97.418,"RA_OF_ASC_NODE":272.8831,"ARG_OF_PERICENTER":204.9538,"MEAN_ANOMALY":155.1633,"EPHEMERIS_TYPE":0,"NORAD_CAT_ID":66755,"ELEMENT_SET_NO":999,"REV_AT_EPOCH":3539,"BSTAR":0.00016100814,"MEAN_MOTION_DOT":0.00002567,"MEAN_MOTION_DDOT":0},{"OBJECT_NAME":"ICEYE-X63","OBJECT_ID":"2026-004K","EPOCH":"2026-07-20T21:34:19.416576","CLASSIFICATION_TYPE":"U","MEAN_MOTION":14.8835562,"ECCENTRICITY":0.0005037,"INCLINATION":97.8017,"RA_OF_ASC_NODE":200.014,"ARG_OF_PERICENTER":37.0338,"MEAN_ANOMALY":323.1226,"EPHEMERIS_TYPE":0,"NORAD_CAT_ID":67372,"ELEMENT_SET_NO":999,"REV_AT_EPOCH":2831,"BSTAR":0.000069388256,"MEAN_MOTION_DOT":0.00000588,"MEAN_MOTION_DDOT":0},{"OBJECT_NAME":"ICEYE-X64","OBJECT_ID":"2026-004L","EPOCH":"2026-07-20T22:46:27.277248","CLASSIFICATION_TYPE":"U","MEAN_MOTION":14.87995742,"ECCENTRICITY":0.00068874,"INCLINATION":97.8031,"RA_OF_ASC_NODE":199.9802,"ARG_OF_PERICENTER":38.1687,"MEAN_ANOMALY":322.0016,"EPHEMERIS_TYPE":0,"NORAD_CAT_ID":67373,"ELEMENT_SET_NO":999,"REV_AT_EPOCH":2831,"BSTAR":0.000090310094,"MEAN_MOTION_DOT":0.00000774,"MEAN_MOTION_DDOT":0},{"OBJECT_NAME":"ICEYE-X71","OBJECT_ID":"2026-067CG","EPOCH":"2026-07-20T19:16:37.125408","CLASSIFICATION_TYPE":"U","MEAN_MOTION":14.91862872,"ECCENTRICITY":0.00004688,"INCLINATION":97.7607,"RA_OF_ASC_NODE":159.5207,"ARG_OF_PERICENTER":203.4289,"MEAN_ANOMALY":156.6909,"EPHEMERIS_TYPE":0,"NORAD_CAT_ID":68494,"ELEMENT_SET_NO":999,"REV_AT_EPOCH":1673,"BSTAR":0.01185467,"MEAN_MOTION_DOT":0.00121763,"MEAN_MOTION_DDOT":0},{"OBJECT_NAME":"ICEYE-X73","OBJECT_ID":"2026-067CJ","EPOCH":"2026-07-20T21:27:26.073792","CLASSIFICATION_TYPE":"U","MEAN_MOTION":14.92364658,"ECCENTRICITY":0.00019754,"INCLINATION":97.7626,"RA_OF_ASC_NODE":159.7064,"ARG_OF_PERICENTER":139.6481,"MEAN_ANOMALY":220.4885,"EPHEMERIS_TYPE":0,"NORAD_CAT_ID":68496,"ELEMENT_SET_NO":999,"REV_AT_EPOCH":1675,"BSTAR":0.00017245035,"MEAN_MOTION_DOT":0.00001708,"MEAN_MOTION_DDOT":0},{"OBJECT_NAME":"ICEYE-X75","OBJECT_ID":"2026-067CK","EPOCH":"2026-07-20T19:58:18.563520","CLASSIFICATION_TYPE":"U","MEAN_MOTION":14.92181696,"ECCENTRICITY":0.00018269,"INCLINATION":97.761,"RA_OF_ASC_NODE":159.6101,"ARG_OF_PERICENTER":136.8876,"MEAN_ANOMALY":223.2487,"EPHEMERIS_TYPE":0,"NORAD_CAT_ID":68497,"ELEMENT_SET_NO":999,"REV_AT_EPOCH":1674,"BSTAR":0.000096256112,"MEAN_MOTION_DOT":0.00000924,"MEAN_MOTION_DDOT":0},{"OBJECT_NAME":"ICEYE-X74","OBJECT_ID":"2026-067CN","EPOCH":"2026-07-20T20:49:20.176896","CLASSIFICATION_TYPE":"U","MEAN_MOTION":14.91809016,"ECCENTRICITY":0.00003386,"INCLINATION":97.7635,"RA_OF_ASC_NODE":159.6008,"ARG_OF_PERICENTER":290.1139,"MEAN_ANOMALY":70.0043,"EPHEMERIS_TYPE":0,"NORAD_CAT_ID":68500,"ELEMENT_SET_NO":999,"REV_AT_EPOCH":1674,"BSTAR":0.00013586059,"MEAN_MOTION_DOT":0.00001315,"MEAN_MOTION_DDOT":0},{"OBJECT_NAME":"ICEYE-X76","OBJECT_ID":"2026-067CQ","EPOCH":"2026-07-20T20:43:40.465056","CLASSIFICATION_TYPE":"U","MEAN_MOTION":14.91757593,"ECCENTRICITY":0.00004298,"INCLINATION":97.7643,"RA_OF_ASC_NODE":159.615,"ARG_OF_PERICENTER":237.6201,"MEAN_ANOMALY":122.4976,"EPHEMERIS_TYPE":0,"NORAD_CAT_ID":68502,"ELEMENT_SET_NO":999,"REV_AT_EPOCH":1674,"BSTAR":0.00004846759,"MEAN_MOTION_DOT":0.00000433,"MEAN_MOTION_DDOT":0}]}
