ICEYE-X53               
1 64584U 25135BJ  26201.89193843  .00001704  00000+0  13853-3 0  9993
2 64584  97.7355 318.5237 0002168 163.8410 196.2884 15.00910976 59138
ICEYE-X65               
1 66300U 25248H   26201.60564558  .00001712  00000+0  12562-3 0  9995
2 66300  45.4068 318.4471 0005988 226.3769 133.6617 15.07949156 40566
ICEYE-X66               
1 66301U 25248J   26201.33407998  .00002060  00000+0  14311-3 0  9991
2 66301  45.4023 318.9024 0005673 221.2592 138.7862 15.09198898 40510
ICEYE-X67               
1 66302U 25248K   26201.35882733  .00001772  00000+0  12540-3 0  9999
2 66302  45.4071 318.3531 0007078 221.9188 138.1153 15.09179672 40538
ICEYE-X58               
1 66751U 25276CP  26201.75319876  .00001524  00000+0  79729-4 0  9993
2 66751  97.4192 274.5174 0002721 190.4023 169.7154 15.17324571 35502
ICEYE-X59               
1 66752U 25276CQ  26201.74644819  .00002742  00000+0  22045-3 0  9992
2 66752  97.4402 271.6103 0001311 130.1300 230.0039 15.00783297 35308
ICEYE-X60               
1 66753U 25276CR  26200.76990424  .00001909  00000+0  11913-3 0  9996
2 66753  97.4203 272.4701 0000985 344.1732  15.9467 15.10668296 35287
ICEYE-X61               
1 66754U 25276CS  26201.76661593  .00001668  00000+0  83843-4 0  9994
2 66754  97.4188 274.6307 0002624 191.5964 168.5210 15.18627771 35517
ICEYE-X62               
1 66755U 25276CT  26201.72490326  .00002567  00000+0  16101-3 0  9996
2 66755  97.4180 272.8831 0001206 204.9538 155.1633 15.10178558 35396
ICEYE-X63               
1 67372U 26004K   26201.89883584  .00000588  00000+0  69388-4 0  9999
2 67372  97.8017 200.0140 0005037  37.0338 323.1226 14.88355620 28310
ICEYE-X64               
1 67373U 26004L   26201.94892682  .00000774  00000+0  90310-4 0  9991
2 67373  97.8031 199.9802 0006887  38.1687 322.0016 14.87995742 28310
ICEYE-X71               
1 68494U 26067CG  26201.80320747  .00121763  00000+0  11855-1 0  9994
2 68494  97.7607 159.5207 0000468 203.4289 156.6909 14.91862872 16735
ICEYE-X73               
1 68496U 26067CJ  26201.89405178  .00001708  00000+0  17245-3 0  9994
2 68496  97.7626 159.7064 0001975 139.6481 220.4885 14.92364658 16754
ICEYE-X75               
1 68497U 26067CK  26201.83215930  .00000924  00000+0  96256-4 0  9993
2 68497  97.7610 159.6101 0001826 136.8876 223.2487 14.92181696 16748
ICEYE-X74               
1 68500U 26067CN  26201.86759464  .00001315  00000+0  13586-3 0  9995
2 68500  97.7635 159.6008 0000338 290.1139  70.0043 14.91809016 16747
ICEYE-X76               
1 68502U 26067CQ  26201.86366279  .00000433  00000+0  48468-4 0  9993
2 68502  97.7643 159.6150 0000429 237.6201 122.4976 14.91757593 16742
